[{"OBJECT_NAME":"ICEYE-X54","OBJECT_ID":"2025-135AU","EPOCH":"2026-03-09T21:59:41.591040","MEAN_MOTION":14.93897113,"ECCENTRICITY":9.94e-5,"INCLINATION":97.759,"RA_OF_ASC_NODE":184.427,"ARG_OF_PERICENTER":275.8004,"MEAN_ANOMALY":84.3103,"EPHEMERIS_TYPE":0,"CLASSIFICATION_TYPE":"U","NORAD_CAT_ID":64570,"ELEMENT_SET_NO":999,"REV_AT_EPOCH":3907,"BSTAR":0.00047614283,"MEAN_MOTION_DOT":5.007e-5,"MEAN_MOTION_DDOT":0},{"OBJECT_NAME":"PEGASUS DEB","OBJECT_ID":"1994-029YH","EPOCH":"2026-03-09T13:48:40.247712","MEAN_MOTION":13.39711213,"ECCENTRICITY":0.0728479,"INCLINATION":81.5431,"RA_OF_ASC_NODE":97.4781,"ARG_OF_PERICENTER":287.3771,"MEAN_ANOMALY":203.8925,"EPHEMERIS_TYPE":0,"CLASSIFICATION_TYPE":"U","NORAD_CAT_ID":24581,"ELEMENT_SET_NO":999,"REV_AT_EPOCH":42256,"BSTAR":0.0015334,"MEAN_MOTION_DOT":4.131e-5,"MEAN_MOTION_DDOT":0}]
